CTC1_L_00512016-11
1 46081U 23685OZ  26070.40839120  .00000000  00000+0  00000-0 0  9994
2 46081  97.5000 180.0000 0000000   0.0000 216.0000 15.08756051    19
CTC1_L_00512016-12
1 46082U 22434AZ  26070.40839120  .00000000  00000+0  00000-0 0  9996
2 46082  97.5000 180.0000 0000000   0.0000 234.0000 15.08756051    10
CTC1_L_00512016-13
1 46083U 22707RP  26070.40839120  .00000000  00000+0  00000-0 0  9990
2 46083  97.5000 180.0000 0000000   0.0000 252.0000 15.08756051    11
CTC1_L_00512016-14
1 46084U 22205NA  26070.40839120  .00000000  00000+0  00000-0 0  9994
2 46084  97.5000 180.0000 0000000   0.0000 270.0000 15.08756051    12
CTC1_L_00512016-15
1 46085U 26460TI  26070.40839120  .00000000  00000+0  00000-0 0  9992
2 46085  97.5000 180.0000 0000000   0.0000 288.0000 15.08756051    12
CTC1_L_00512016-16
1 46086U 25913WE  26070.40839120  .00000000  00000+0  00000-0 0  9995
2 46086  97.5000 180.0000 0000000   0.0000 306.0000 15.08756051    14
CTC1_L_00512016-17
1 46087U 25558WU  26070.40839120  .00000000  00000+0  00000-0 0  9991
2 46087  97.5000 180.0000 0000000   0.0000 324.0000 15.08756051    15
CTC1_L_00512016-18
1 46088U 26089YC  26070.40839120  .00000000  00000+0  00000-0 0  9992
2 46088  97.5000 180.0000 0000000   0.0000 342.0000 15.08756051    16
CTC1_L_00512016-19
1 46089U 22232WU  26070.40839120  .00000000  00000+0  00000-0 0  9999
2 46089  97.5000 180.0000 0000000   0.0000   0.0000 15.08756051    18
CTC1_L_00512016-20
1 46090U 23353SC  26070.40839120  .00000000  00000+0  00000-0 0  9996
2 46090  97.5000 180.0000 0000000   0.0000  18.0000 15.08756051    19
CTC1_L_00512017-01
1 46091U 25376QE  26070.40839120  .00000000  00000+0  00000-0 0  9994
2 46091  97.5000 192.0000 0000000   0.0000  38.4000 15.08756051    19
CTC1_L_00512017-02
1 46092U 23843OK  26070.40839120  .00000000  00000+0  00000-0 0  9992
2 46092  97.5000 192.0000 0000000   0.0000  56.4000 15.08756051    10
CTC1_L_00512017-03
1 46093U 26867DI  26070.40839120  .00000000  00000+0  00000-0 0  9992
2 46093  97.5000 192.0000 0000000   0.0000  74.4000 15.08756051    11
CTC1_L_00512017-04
1 46094U 26109IM  26070.40839120  .00000000  00000+0  00000-0 0  9992
2 46094  97.5000 192.0000 0000000   0.0000  92.4000 15.08756051    12
CTC1_L_00512017-05
1 46095U 22886IS  26070.40839120  .00000000  00000+0  00000-0 0  9991
2 46095  97.5000 192.0000 0000000   0.0000 110.4000 15.08756051    14
CTC1_L_00512017-06
1 46096U 24714KY  26070.40839120  .00000000  00000+0  00000-0 0  9994
2 46096  97.5000 192.0000 0000000   0.0000 128.4000 15.08756051    14
CTC1_L_00512017-07
1 46097U 23881QC  26070.40839120  .00000000  00000+0  00000-0 0  9999
2 46097  97.5000 192.0000 0000000   0.0000 146.4000 15.08756051    15
CTC1_L_00512017-08
1 46098U 22737QX  26070.40839120  .00000000  00000+0  00000-0 0  9999
2 46098  97.5000 192.0000 0000000   0.0000 164.4000 15.08756051    16
CTC1_L_00512017-09
1 46099U 22841UO  26070.40839120  .00000000  00000+0  00000-0 0  9996
2 46099  97.5000 192.0000 0000000   0.0000 182.4000 15.08756051    17
CTC1_L_00512017-10
1 46100U 23783ZK  26070.40839120  .00000000  00000+0  00000-0 0  9995
2 46100  97.5000 192.0000 0000000   0.0000 200.4000 15.08756051    11
CTC1_L_00512017-11
1 46101U 24341LB  26070.40839120  .00000000  00000+0  00000-0 0  9997
2 46101  97.5000 192.0000 0000000   0.0000 218.4000 15.08756051    11
CTC1_L_00512017-12
1 46102U 26229YS  26070.40839120  .00000000  00000+0  00000-0 0  9995
2 46102  97.5000 192.0000 0000000   0.0000 236.4000 15.08756051    12
CTC1_L_00512017-13
1 46103U 25310YM  26070.40839120  .00000000  00000+0  00000-0 0  9996
2 46103  97.5000 192.0000 0000000   0.0000 254.4000 15.08756051    13
CTC1_L_00512017-14
1 46104U 22358VF  26070.40839120  .00000000  00000+0  00000-0 0  9996
2 46104  97.5000 192.0000 0000000   0.0000 272.4000 15.08756051    14
CTC1_L_00512017-15
1 46105U 24382DM  26070.40839120  .00000000  00000+0  00000-0 0  9996
2 46105  97.5000 192.0000 0000000   0.0000 290.4000 15.08756051    15
CTC1_L_00512017-16
1 46106U 22198MN  26070.40839120  .00000000  00000+0  00000-0 0  9990
2 46106  97.5000 192.0000 0000000   0.0000 308.4000 15.08756051    16
CTC1_L_00512017-17
1 46107U 25531CU  26070.40839120  .00000000  00000+0  00000-0 0  9995
2 46107  97.5000 192.0000 0000000   0.0000 326.4000 15.08756051    17
CTC1_L_00512017-18
1 46108U 26313ZU  26070.40839120  .00000000  00000+0  00000-0 0  9995
2 46108  97.5000 192.0000 0000000   0.0000 344.4000 15.08756051    18
CTC1_L_00512017-19
1 46109U 25365GU  26070.40839120  .00000000  00000+0  00000-0 0  9992
2 46109  97.5000 192.0000 0000000   0.0000   2.4000 15.08756051    10
CTC1_L_00512017-20
1 46110U 23397UZ  26070.40839120  .00000000  00000+0  00000-0 0  9997
2 46110  97.5000 192.0000 0000000   0.0000  20.4000 15.08756051    12
CTC1_L_00512018-01
1 46111U 26594FR  26070.40839120  .00000000  00000+0  00000-0 0  9990
2 46111  97.5000 204.0000 0000000   0.0000  40.8000 15.08756051    13
CTC1_L_00512018-02
1 46112U 26292NJ  26070.40839120  .00000000  00000+0  00000-0 0  9996
2 46112  97.5000 204.0000 0000000   0.0000  58.8000 15.08756051    13
CTC1_L_00512018-03
1 46113U 22147MA  26070.40839120  .00000000  00000+0  00000-0 0  9992
2 46113  97.5000 204.0000 0000000   0.0000  76.8000 15.08756051    14
CTC1_L_00512018-04
1 46114U 25859NA  26070.40839120  .00000000  00000+0  00000-0 0  9996
2 46114  97.5000 204.0000 0000000   0.0000  94.8000 15.08756051    15
CTC1_L_00512018-05
1 46115U 24528MK  26070.40839120  .00000000  00000+0  00000-0 0  9999
2 46115  97.5000 204.0000 0000000   0.0000 112.8000 15.08756051    17
CTC1_L_00512018-06
1 46116U 24874PY  26070.40839120  .00000000  00000+0  00000-0 0  9994
2 46116  97.5000 204.0000 0000000   0.0000 130.8000 15.08756051    18
CTC1_L_00512018-07
1 46117U 23423QT  26070.40839120  .00000000  00000+0  00000-0 0  9994
2 46117  97.5000 204.0000 0000000   0.0000 148.8000 15.08756051    18
CTC1_L_00512018-08
1 46118U 23048OM  26070.40839120  .00000000  00000+0  00000-0 0  9998
2 46118  97.5000 204.0000 0000000   0.0000 166.8000 15.08756051    19
CTC1_L_00512018-09
1 46119U 25230UV  26070.40839120  .00000000  00000+0  00000-0 0  9994
2 46119  97.5000 204.0000 0000000   0.0000 184.8000 15.08756051    10
CTC1_L_00512018-10
1 46120U 22327LM  26070.40839120  .00000000  00000+0  00000-0 0  9990
2 46120  97.5000 204.0000 0000000   0.0000 202.8000 15.08756051    13
CTC1_L_00512018-11
1 46121U 25213SX  26070.40839120  .00000000  00000+0  00000-0 0  9998
2 46121  97.5000 204.0000 0000000   0.0000 220.8000 15.08756051    14
CTC1_L_00512018-12
1 46122U 25154MZ  26070.40839120  .00000000  00000+0  00000-0 0  9993
2 46122  97.5000 204.0000 0000000   0.0000 238.8000 15.08756051    14
CTC1_L_00512018-13
1 46123U 23382KF  26070.40839120  .00000000  00000+0  00000-0 0  9995
2 46123  97.5000 204.0000 0000000   0.0000 256.8000 15.08756051    15
CTC1_L_00512018-14
1 46124U 24210BC  26070.40839120  .00000000  00000+0  00000-0 0  9997
2 46124  97.5000 204.0000 0000000   0.0000 274.8000 15.08756051    16
CTC1_L_00512018-15
1 46125U 25399VF  26070.40839120  .00000000  00000+0  00000-0 0  9997
2 46125  97.5000 204.0000 0000000   0.0000 292.8000 15.08756051    17
CTC1_L_00512018-16
1 46126U 25866PA  26070.40839120  .00000000  00000+0  00000-0 0  9997
2 46126  97.5000 204.0000 0000000   0.0000 310.8000 15.08756051    19
CTC1_L_00512018-17
1 46127U 25841FG  26070.40839120  .00000000  00000+0  00000-0 0  9991
2 46127  97.5000 204.0000 0000000   0.0000 328.8000 15.08756051    19
CTC1_L_00512018-18
1 46128U 26333YW  26070.40839120  .00000000  00000+0  00000-0 0  9999
2 46128  97.5000 204.0000 0000000   0.0000 346.8000 15.08756051    10
CTC1_L_00512018-19
1 46129U 25012OQ  26070.40839120  .00000000  00000+0  00000-0 0  9993
2 46129  97.5000 204.0000 0000000   0.0000   4.8000 15.08756051    12
CTC1_L_00512018-20
1 46130U 25418LH  26070.40839120  .00000000  00000+0  00000-0 0  9995
2 46130  97.5000 204.0000 0000000   0.0000  22.8000 15.08756051    14
CTC1_L_00512019-01
1 46131U 22406SS  26070.40839120  .00000000  00000+0  00000-0 0  9990
2 46131  97.5000 216.0000 0000000   0.0000  43.2000 15.08756051    15
CTC1_L_00512019-02
1 46132U 22116BB  26070.40839120  .00000000  00000+0  00000-0 0  9999
2 46132  97.5000 216.0000 0000000   0.0000  61.2000 15.08756051    16
CTC1_L_00512019-03
1 46133U 25942ZD  26070.40839120  .00000000  00000+0  00000-0 0  9990
2 46133  97.5000 216.0000 0000000   0.0000  79.2000 15.08756051    16
CTC1_L_00512019-04
1 46134U 26225EY  26070.40839120  .00000000  00000+0  00000-0 0  9996
2 46134  97.5000 216.0000 0000000   0.0000  97.2000 15.08756051    17
CTC1_L_00512019-05
1 46135U 25451L   26070.40839120  .00000000  00000+0  00000-0 0  9997
2 46135  97.5000 216.0000 0000000   0.0000 115.2000 15.08756051    19
CTC1_L_00512019-06
1 46136U 24510M   26070.40839120  .00000000  00000+0  00000-0 0  9993
2 46136  97.5000 216.0000 0000000   0.0000 133.2000 15.08756051    10
CTC1_L_00512019-07
1 46137U 23688SD  26070.40839120  .00000000  00000+0  00000-0 0  9999
2 46137  97.5000 216.0000 0000000   0.0000 151.2000 15.08756051    11
CTC1_L_00512019-08
1 46138U 26354TD  26070.40839120  .00000000  00000+0  00000-0 0  9993
2 46138  97.5000 216.0000 0000000   0.0000 169.2000 15.08756051    11
CTC1_L_00512019-09
1 46139U 22517SU  26070.40839120  .00000000  00000+0  00000-0 0  9991
2 46139  97.5000 216.0000 0000000   0.0000 187.2000 15.08756051    12
CTC1_L_00512019-10
1 46140U 22339ZW  26070.40839120  .00000000  00000+0  00000-0 0  9995
2 46140  97.5000 216.0000 0000000   0.0000 205.2000 15.08756051    15
CTC1_L_00512019-11
1 46141U 26477QG  26070.40839120  .00000000  00000+0  00000-0 0  9993
2 46141  97.5000 216.0000 0000000   0.0000 223.2000 15.08756051    16
CTC1_L_00512019-12
1 46142U 23877DI  26070.40839120  .00000000  00000+0  00000-0 0  9995
2 46142  97.5000 216.0000 0000000   0.0000 241.2000 15.08756051    17
